{
  "type": "FeatureCollection",
  "features": [
    {
      "type": "Feature",
      "properties": {
        "norad_id": 36828,
        "name": "BEIDOU-2 IGSO-1 (C06)",
        "group": "beidou",
        "lat": 52.374084801727186,
        "lon": -126.1462165205669,
        "alt_km": 35940.037332377,
        "timestamp": "2025-12-08T03:50:07.262278+00:00",
        "meta_object_name": "BEIDOU-2 IGSO-1 (C06)",
        "meta_object_id": "2010-036A",
        "meta_epoch": "2025-12-06T22:34:51.744288",
        "meta_mean_motion": 1.00277718,
        "meta_eccentricity": 0.00512366,
        "meta_inclination": 54.287,
        "meta_ra_of_asc_node": 164.7002,
        "meta_arg_of_pericenter": 215.8375,
        "meta_mean_anomaly": 141.9649,
        "meta_ephemeris_type": 0,
        "meta_classification_type": "U",
        "meta_norad_cat_id": 36828,
        "meta_element_set_no": 999,
        "meta_rev_at_epoch": 5616,
        "meta_bstar": 0,
        "meta_mean_motion_dot": -6.2e-07,
        "meta_mean_motion_ddot": 0,
        "tle_line1": "1 36828U 10036A   25340.94087667 -.00000062  00000+0  00000+0 0  9995",
        "tle_line2": "2 36828  54.2870 164.7002 0051236 215.8375 141.9649  1.00277718 56168"
      },
      "geometry": {
        "type": "Point",
        "coordinates": [
          -126.1462165205669,
          52.374084801727186
        ]
      }
    },
    {
      "type": "Feature",
      "properties": {
        "norad_id": 37210,
        "name": "BEIDOU-2 G4 (C04)",
        "group": "beidou",
        "lat": -2.257050550580431,
        "lon": -65.19703667426869,
        "alt_km": 35748.50795576456,
        "timestamp": "2025-12-08T03:50:07.262300+00:00",
        "meta_object_name": "BEIDOU-2 G4 (C04)",
        "meta_object_id": "2010-057A",
        "meta_epoch": "2025-12-07T05:50:07.288224",
        "meta_mean_motion": 1.00271393,
        "meta_eccentricity": 0.00109396,
        "meta_inclination": 3.1705,
        "meta_ra_of_asc_node": 69.9516,
        "meta_arg_of_pericenter": 189.9186,
        "meta_mean_anomaly": 64.0033,
        "meta_ephemeris_type": 0,
        "meta_classification_type": "U",
        "meta_norad_cat_id": 37210,
        "meta_element_set_no": 999,
        "meta_rev_at_epoch": 5536,
        "meta_bstar": 0,
        "meta_mean_motion_dot": -1.08e-06,
        "meta_mean_motion_ddot": 0,
        "tle_line1": "1 37210U 10057A   25341.24313991 -.00000108  00000+0  00000+0 0  9991",
        "tle_line2": "2 37210   3.1705  69.9516 0010939 189.9186  64.0033  1.00271393 55362"
      },
      "geometry": {
        "type": "Point",
        "coordinates": [
          -65.19703667426869,
          -2.257050550580431
        ]
      }
    },
    {
      "type": "Feature",
      "properties": {
        "norad_id": 37256,
        "name": "BEIDOU-2 IGSO-2 (C07)",
        "group": "beidou",
        "lat": -22.881558266498534,
        "lon": -108.20497327428433,
        "alt_km": 35863.27585989392,
        "timestamp": "2025-12-08T03:50:07.262316+00:00",
        "meta_object_name": "BEIDOU-2 IGSO-2 (C07)",
        "meta_object_id": "2010-068A",
        "meta_epoch": "2025-12-03T17:22:36.030432",
        "meta_mean_motion": 1.0028871,
        "meta_eccentricity": 0.00492335,
        "meta_inclination": 47.9043,
        "meta_ra_of_asc_node": 274.2613,
        "meta_arg_of_pericenter": 216.1442,
        "meta_mean_anomaly": 310.2369,
        "meta_ephemeris_type": 0,
        "meta_classification_type": "U",
        "meta_norad_cat_id": 37256,
        "meta_element_set_no": 999,
        "meta_rev_at_epoch": 5483,
        "meta_bstar": 0,
        "meta_mean_motion_dot": -2.25e-06,
        "meta_mean_motion_ddot": 0,
        "tle_line1": "1 37256U 10068A   25337.72402813 -.00000225  00000+0  00000+0 0  9993",
        "tle_line2": "2 37256  47.9043 274.2613 0049233 216.1442 310.2369  1.00288710 54839"
      },
      "geometry": {
        "type": "Point",
        "coordinates": [
          -108.20497327428433,
          -22.881558266498534
        ]
      }
    },
    {
      "type": "Feature",
      "properties": {
        "norad_id": 37384,
        "name": "BEIDOU-2 IGSO-3 (C08)",
        "group": "beidou",
        "lat": -17.97255835103713,
        "lon": -128.1361627083726,
        "alt_km": 35644.264180766215,
        "timestamp": "2025-12-08T03:50:07.262330+00:00",
        "meta_object_name": "BEIDOU-2 IGSO-3 (C08)",
        "meta_object_id": "2011-013A",
        "meta_epoch": "2025-12-03T14:52:09.520896",
        "meta_mean_motion": 1.00272128,
        "meta_eccentricity": 0.00353922,
        "meta_inclination": 62.1308,
        "meta_ra_of_asc_node": 42.005,
        "meta_arg_of_pericenter": 186.5359,
        "meta_mean_anomaly": 174.9093,
        "meta_ephemeris_type": 0,
        "meta_classification_type": "U",
        "meta_norad_cat_id": 37384,
        "meta_element_set_no": 999,
        "meta_rev_at_epoch": 5370,
        "meta_bstar": 0,
        "meta_mean_motion_dot": -1.99e-06,
        "meta_mean_motion_ddot": 0,
        "tle_line1": "1 37384U 11013A   25337.61955464 -.00000199  00000+0  00000+0 0  9999",
        "tle_line2": "2 37384  62.1308  42.0050 0035392 186.5359 174.9093  1.00272128 53708"
      },
      "geometry": {
        "type": "Point",
        "coordinates": [
          -128.1361627083726,
          -17.97255835103713
        ]
      }
    },
    {
      "type": "Feature",
      "properties": {
        "norad_id": 37763,
        "name": "BEIDOU-2 IGSO-4 (C09)",
        "group": "beidou",
        "lat": 45.545682720305145,
        "lon": -146.03112144094817,
        "alt_km": 36394.752998673684,
        "timestamp": "2025-12-08T03:50:07.262344+00:00",
        "meta_object_name": "BEIDOU-2 IGSO-4 (C09)",
        "meta_object_id": "2011-038A",
        "meta_epoch": "2025-12-01T12:32:09.960864",
        "meta_mean_motion": 1.00284074,
        "meta_eccentricity": 0.01487808,
        "meta_inclination": 54.5808,
        "meta_ra_of_asc_node": 167.4476,
        "meta_arg_of_pericenter": 230.2031,
        "meta_mean_anomaly": 315.0387,
        "meta_ephemeris_type": 0,
        "meta_classification_type": "U",
        "meta_norad_cat_id": 37763,
        "meta_element_set_no": 999,
        "meta_rev_at_epoch": 5266,
        "meta_bstar": 0,
        "meta_mean_motion_dot": 1.01e-06,
        "meta_mean_motion_ddot": 0,
        "tle_line1": "1 37763U 11038A   25335.52233751  .00000101  00000+0  00000+0 0  9995",
        "tle_line2": "2 37763  54.5808 167.4476 0148780 230.2031 315.0387  1.00284074 52664"
      },
      "geometry": {
        "type": "Point",
        "coordinates": [
          -146.03112144094817,
          45.545682720305145
        ]
      }
    },
    {
      "type": "Feature",
      "properties": {
        "norad_id": 37948,
        "name": "BEIDOU-2 IGSO-5 (C10)",
        "group": "beidou",
        "lat": -31.899269299251664,
        "lon": -120.10173588355593,
        "alt_km": 35801.70553049774,
        "timestamp": "2025-12-08T03:50:07.262357+00:00",
        "meta_object_name": "BEIDOU-2 IGSO-5 (C10)",
        "meta_object_id": "2011-073A",
        "meta_epoch": "2025-12-06T19:14:09.676896",
        "meta_mean_motion": 1.00291748,
        "meta_eccentricity": 0.01104743,
        "meta_inclination": 48.0318,
        "meta_ra_of_asc_node": 273.9307,
        "meta_arg_of_pericenter": 222.1618,
        "meta_mean_anomaly": 320.8955,
        "meta_ephemeris_type": 0,
        "meta_classification_type": "U",
        "meta_norad_cat_id": 37948,
        "meta_element_set_no": 999,
        "meta_rev_at_epoch": 5120,
        "meta_bstar": 0,
        "meta_mean_motion_dot": -1.84e-06,
        "meta_mean_motion_ddot": 0,
        "tle_line1": "1 37948U 11073A   25340.80150089 -.00000184  00000+0  00000+0 0  9990",
        "tle_line2": "2 37948  48.0318 273.9307 0110474 222.1618 320.8955  1.00291748 51209"
      },
      "geometry": {
        "type": "Point",
        "coordinates": [
          -120.10173588355593,
          -31.899269299251664
        ]
      }
    },
    {
      "type": "Feature",
      "properties": {
        "norad_id": 38091,
        "name": "BEIDOU-2 G5 (C05)",
        "group": "beidou",
        "lat": 2.5996554296007246,
        "lon": -166.66513868490608,
        "alt_km": 35797.54038669925,
        "timestamp": "2025-12-08T03:50:07.262369+00:00",
        "meta_object_name": "BEIDOU-2 G5 (C05)",
        "meta_object_id": "2012-008A",
        "meta_epoch": "2025-12-07T03:38:26.717568",
        "meta_mean_motion": 1.00273604,
        "meta_eccentricity": 0.00125154,
        "meta_inclination": 3.0949,
        "meta_ra_of_asc_node": 70.7251,
        "meta_arg_of_pericenter": 226.4508,
        "meta_mean_anomaly": 252.3414,
        "meta_ephemeris_type": 0,
        "meta_classification_type": "U",
        "meta_norad_cat_id": 38091,
        "meta_element_set_no": 999,
        "meta_rev_at_epoch": 5044,
        "meta_bstar": 0,
        "meta_mean_motion_dot": 6e-07,
        "meta_mean_motion_ddot": 0,
        "tle_line1": "1 38091U 12008A   25341.15169812  .00000060  00000+0  00000+0 0  9994",
        "tle_line2": "2 38091   3.0949  70.7251 0012515 226.4508 252.3414  1.00273604 50448"
      },
      "geometry": {
        "type": "Point",
        "coordinates": [
          -166.66513868490608,
          2.5996554296007246
        ]
      }
    }
  ]
}